start=new Date('2023-04-17T00:00:00.000Z').valueOf();
sats=[{"APOAPSIS":"548.498","SITE":"AFETR","MEAN_MOTION":"15.06316448","CLASSIFICATION_TYPE":"U","LAUNCH_DATE":"2021-05-15","MEAN_MOTION_DOT":"0.00032415","MEAN_ELEMENT_THEORY":"SGP4","REV_AT_EPOCH":"10559","NORAD_CAT_ID":"48584","REF_FRAME":"TEME","RA_OF_ASC_NODE":"211.1068","DECAY_DATE":null,"COUNTRY_CODE":"US","OBJECT_NAME":"STARLINK-2238","OBJECT_TYPE":"PAYLOAD","PERIAPSIS":"546.441","RCS_SIZE":"LARGE","ELEMENT_SET_NO":"999","CENTER_NAME":"EARTH","FILE":"3888799","MEAN_MOTION_DDOT":"0.0000000000000","INCLINATION":"53.0529","EPHEMERIS_TYPE":"0","TIME_SYSTEM":"UTC","ARG_OF_PERICENTER":"67.0693","OBJECT_ID":"2021-041AH","PERIOD":"95.597","MEAN_ANOMALY":"293.0453","ECCENTRICITY":"0.00014850","EPOCH":"2023-04-16T16:51:44.906976","SEMIMAJOR_AXIS":"6925.605","BSTAR":"0.00219000000000","GP_ID":"230197217","TLE_LINE2":"2 48584  53.0529 211.1068 0001485  67.0693 293.0453 15.06316448105597","TLE_LINE1":"1 48584U 21041AH  23106.70260309  .00032415  00000-0  21900-2 0  9995"},{"SEMIMAJOR_AXIS":"6925.444","BSTAR":"0.00005464200000","GP_ID":"230197929","TLE_LINE2":"2 48585  53.0540 211.0522 0001105 113.7706 246.3398 15.06368829105597","TLE_LINE1":"1 48585U 21041AJ  23106.71369541  .00000532  00000-0  54642-4 0  9991","OBJECT_TYPE":"PAYLOAD","PERIAPSIS":"546.544","CENTER_NAME":"EARTH","FILE":"3888799","RCS_SIZE":"LARGE","ELEMENT_SET_NO":"999","MEAN_MOTION_DDOT":"0.0000000000000","INCLINATION":"53.0540","EPHEMERIS_TYPE":"0","ARG_OF_PERICENTER":"113.7706","TIME_SYSTEM":"UTC","OBJECT_ID":"2021-041AJ","MEAN_ANOMALY":"246.3398","PERIOD":"95.594","ECCENTRICITY":"0.00011050","EPOCH":"2023-04-16T17:07:43.283424","MEAN_ELEMENT_THEORY":"SGP4","REV_AT_EPOCH":"10559","NORAD_CAT_ID":"48585","REF_FRAME":"TEME","RA_OF_ASC_NODE":"211.0522","DECAY_DATE":null,"COUNTRY_CODE":"US","OBJECT_NAME":"STARLINK-2240","APOAPSIS":"548.074","SITE":"AFETR","MEAN_MOTION":"15.06368829","CLASSIFICATION_TYPE":"U","LAUNCH_DATE":"2021-05-15","MEAN_MOTION_DOT":"0.00000532"},{"DECAY_DATE":null,"OBJECT_NAME":"STARLINK-2241","COUNTRY_CODE":"US","MEAN_ELEMENT_THEORY":"SGP4","NORAD_CAT_ID":"48586","REV_AT_EPOCH":"10559","REF_FRAME":"TEME","RA_OF_ASC_NODE":"211.0905","CLASSIFICATION_TYPE":"U","LAUNCH_DATE":"2021-05-15","MEAN_MOTION_DOT":"0.00032265","APOAPSIS":"548.475","SITE":"AFETR","MEAN_MOTION":"15.06311125","TLE_LINE2":"2 48586  53.0525 211.0905 0001428  68.5280 291.5861 15.06311125105592","TLE_LINE1":"1 48586U 21041AK  23106.70627929  .00032265  00000-0  21803-2 0  9997","SEMIMAJOR_AXIS":"6925.621","BSTAR":"0.00218030000000","GP_ID":"230196216","EPHEMERIS_TYPE":"0","TIME_SYSTEM":"UTC","ARG_OF_PERICENTER":"68.5280","OBJECT_ID":"2021-041AK","MEAN_ANOMALY":"291.5861","PERIOD":"95.598","ECCENTRICITY":"0.00014280","EPOCH":"2023-04-16T16:57:02.530656","OBJECT_TYPE":"PAYLOAD","PERIAPSIS":"546.497","ELEMENT_SET_NO":"999","RCS_SIZE":"LARGE","CENTER_NAME":"EARTH","FILE":"3888799","MEAN_MOTION_DDOT":"0.0000000000000","INCLINATION":"53.0525"},{"MEAN_MOTION_DOT":"0.00044419","CLASSIFICATION_TYPE":"U","LAUNCH_DATE":"2021-05-15","MEAN_MOTION":"15.06350503","APOAPSIS":"548.397","SITE":"AFETR","COUNTRY_CODE":"US","OBJECT_NAME":"STARLINK-2242","DECAY_DATE":null,"REF_FRAME":"TEME","RA_OF_ASC_NODE":"211.0709","MEAN_ELEMENT_THEORY":"SGP4","NORAD_CAT_ID":"48587","REV_AT_EPOCH":"10559","OBJECT_ID":"2021-041AL","MEAN_ANOMALY":"285.4756","PERIOD":"95.595","ECCENTRICITY":"0.00014900","EPOCH":"2023-04-16T17:02:23.836704","EPHEMERIS_TYPE":"0","TIME_SYSTEM":"UTC","ARG_OF_PERICENTER":"74.6397","INCLINATION":"53.0543","MEAN_MOTION_DDOT":"0.0000000000000","OBJECT_TYPE":"PAYLOAD","PERIAPSIS":"546.333","RCS_SIZE":"LARGE","ELEMENT_SET_NO":"999","FILE":"3888799","CENTER_NAME":"EARTH","TLE_LINE2":"2 48587  53.0543 211.0709 0001490  74.6397 285.4756 15.06350503105599","TLE_LINE1":"1 48587U 21041AL  23106.70999811  .00044419  00000-0  29862-2 0  9997","GP_ID":"230196463","SEMIMAJOR_AXIS":"6925.500","BSTAR":"0.00298620000000"},{"INCLINATION":"53.0539","MEAN_MOTION_DDOT":"0.0000000000000","ELEMENT_SET_NO":"999","RCS_SIZE":"LARGE","CENTER_NAME":"EARTH","FILE":"3888799","PERIAPSIS":"546.702","OBJECT_TYPE":"PAYLOAD","PERIOD":"95.598","ECCENTRICITY":"0.00011470","MEAN_ANOMALY":"279.8329","EPOCH":"2023-04-16T16:31:50.861568","OBJECT_ID":"2021-041AM","ARG_OF_PERICENTER":"80.2790","TIME_SYSTEM":"UTC","EPHEMERIS_TYPE":"0","GP_ID":"230197718","BSTAR":"0.00231540000000","SEMIMAJOR_AXIS":"6925.631","TLE_LINE1":"1 48588U 21041AM  23106.68878312  .00034289  00000-0  23154-2 0  9999","TLE_LINE2":"2 48588  53.0539 201.1646 0001147  80.2790 279.8329 15.06307807105732","MEAN_MOTION":"15.06307807","SITE":"AFETR","APOAPSIS":"548.291","MEAN_MOTION_DOT":"0.00034289","LAUNCH_DATE":"2021-05-15","CLASSIFICATION_TYPE":"U","RA_OF_ASC_NODE":"201.1646","REF_FRAME":"TEME","NORAD_CAT_ID":"48588","REV_AT_EPOCH":"10573","MEAN_ELEMENT_THEORY":"SGP4","OBJECT_NAME":"STARLINK-2244","COUNTRY_CODE":"US","DECAY_DATE":null},{"RA_OF_ASC_NODE":"201.1852","REF_FRAME":"TEME","REV_AT_EPOCH":"10573","NORAD_CAT_ID":"48589","MEAN_ELEMENT_THEORY":"SGP4","OBJECT_NAME":"STARLINK-2245","COUNTRY_CODE":"US","DECAY_DATE":null,"MEAN_MOTION":"15.06280938","SITE":"AFETR","APOAPSIS":"548.362","MEAN_MOTION_DOT":"0.00034040","LAUNCH_DATE":"2021-05-15","CLASSIFICATION_TYPE":"U","GP_ID":"230197429","BSTAR":"0.00230050000000","SEMIMAJOR_AXIS":"6925.713","TLE_LINE1":"1 48589U 21041AN  23106.68509274  .00034040  00000-0  23005-2 0  9998","TLE_LINE2":"2 48589  53.0534 201.1852 0001131  87.6817 272.4302 15.06280938105736","MEAN_MOTION_DDOT":"0.0000000000000","INCLINATION":"53.0534","ELEMENT_SET_NO":"999","RCS_SIZE":"LARGE","CENTER_NAME":"EARTH","FILE":"3888799","PERIAPSIS":"546.795","OBJECT_TYPE":"PAYLOAD","MEAN_ANOMALY":"272.4302","PERIOD":"95.600","EPOCH":"2023-04-16T16:26:32.012736","ECCENTRICITY":"0.00011310","OBJECT_ID":"2021-041AN","TIME_SYSTEM":"UTC","ARG_OF_PERICENTER":"87.6817","EPHEMERIS_TYPE":"0"},{"MEAN_MOTION_DOT":"0.00043033","CLASSIFICATION_TYPE":"U","LAUNCH_DATE":"2021-05-15","MEAN_MOTION":"15.06354641","APOAPSIS":"548.284","SITE":"AFETR","COUNTRY_CODE":"US","OBJECT_NAME":"STARLINK-2248","DECAY_DATE":null,"REF_FRAME":"TEME","RA_OF_ASC_NODE":"201.2527","MEAN_ELEMENT_THEORY":"SGP4","NORAD_CAT_ID":"48591","REV_AT_EPOCH":"10663","OBJECT_ID":"2021-041AQ","ECCENTRICITY":"0.00013450","PERIOD":"95.595","MEAN_ANOMALY":"284.8211","EPOCH":"2023-04-16T16:03:59.368032","EPHEMERIS_TYPE":"0","ARG_OF_PERICENTER":"75.2927","TIME_SYSTEM":"UTC","MEAN_MOTION_DDOT":"0.0000000000000","INCLINATION":"53.0539","OBJECT_TYPE":"PAYLOAD","PERIAPSIS":"546.421","FILE":"3888799","CENTER_NAME":"EARTH","RCS_SIZE":"LARGE","ELEMENT_SET_NO":"999","TLE_LINE2":"2 48591  53.0539 201.2527 0001345  75.2927 284.8211 15.06354641106635","TLE_LINE1":"1 48591U 21041AQ  23106.66943713  .00043033  00000-0  28938-2 0  9991","GP_ID":"230196717","SEMIMAJOR_AXIS":"6925.488","BSTAR":"0.00289380000000"},{"MEAN_MOTION_DOT":"0.00033140","CLASSIFICATION_TYPE":"U","LAUNCH_DATE":"2021-05-15","MEAN_MOTION":"15.06362784","APOAPSIS":"548.191","SITE":"AFETR","OBJECT_NAME":"STARLINK-2249","COUNTRY_CODE":"US","DECAY_DATE":null,"REF_FRAME":"TEME","RA_OF_ASC_NODE":"211.2346","MEAN_ELEMENT_THEORY":"SGP4","NORAD_CAT_ID":"48592","REV_AT_EPOCH":"10559","OBJECT_ID":"2021-041AR","PERIOD":"95.595","MEAN_ANOMALY":"257.8345","EPOCH":"2023-04-16T16:18:35.256672","ECCENTRICITY":"0.00012470","EPHEMERIS_TYPE":"0","TIME_SYSTEM":"UTC","ARG_OF_PERICENTER":"102.2784","MEAN_MOTION_DDOT":"0.0000000000000","INCLINATION":"53.0534","PERIAPSIS":"546.464","OBJECT_TYPE":"PAYLOAD","CENTER_NAME":"EARTH","FILE":"3888799","RCS_SIZE":"LARGE","ELEMENT_SET_NO":"999","TLE_LINE2":"2 48592  53.0534 211.2346 0001247 102.2784 257.8345 15.06362784105593","TLE_LINE1":"1 48592U 21041AR  23106.67957473  .00033140  00000-0  22355-2 0  9996","GP_ID":"230196964","SEMIMAJOR_AXIS":"6925.463","BSTAR":"0.00223550000000"},{"SITE":"AFETR","APOAPSIS":"548.003","MEAN_MOTION":"15.06359302","LAUNCH_DATE":"2021-05-15","CLASSIFICATION_TYPE":"U","MEAN_MOTION_DOT":"0.00037608","NORAD_CAT_ID":"48593","REV_AT_EPOCH":"10559","MEAN_ELEMENT_THEORY":"SGP4","RA_OF_ASC_NODE":"211.1862","REF_FRAME":"TEME","DECAY_DATE":null,"OBJECT_NAME":"STARLINK-2250","COUNTRY_CODE":"US","CENTER_NAME":"EARTH","FILE":"3888799","ELEMENT_SET_NO":"999","RCS_SIZE":"LARGE","OBJECT_TYPE":"PAYLOAD","PERIAPSIS":"546.673","INCLINATION":"53.0533","MEAN_MOTION_DDOT":"0.0000000000000","TIME_SYSTEM":"UTC","ARG_OF_PERICENTER":"93.4509","EPHEMERIS_TYPE":"0","PERIOD":"95.595","ECCENTRICITY":"0.00009600","MEAN_ANOMALY":"266.6589","EPOCH":"2023-04-16T16:25:14.244960","OBJECT_ID":"2021-041AS","BSTAR":"0.00253300000000","SEMIMAJOR_AXIS":"6925.473","GP_ID":"230197218","TLE_LINE1":"1 48593U 21041AS  23106.68419265  .00037608  00000-0  25330-2 0  9999","TLE_LINE2":"2 48593  53.0533 211.1862 0000960  93.4509 266.6589 15.06359302105592"},{"TLE_LINE2":"2 48594  53.0518 181.4452 0001212  89.6026 270.5102 15.06335148106017","TLE_LINE1":"1 48594U 21041AT  23106.64642085  .00030173  00000-0  20394-2 0  9999","SEMIMAJOR_AXIS":"6925.547","BSTAR":"0.00203940000000","GP_ID":"230197930","EPHEMERIS_TYPE":"0","TIME_SYSTEM":"UTC","ARG_OF_PERICENTER":"89.6026","OBJECT_ID":"2021-041AT","MEAN_ANOMALY":"270.5102","PERIOD":"95.596","EPOCH":"2023-04-16T15:30:50.761440","ECCENTRICITY":"0.00012120","PERIAPSIS":"546.573","OBJECT_TYPE":"PAYLOAD","CENTER_NAME":"EARTH","FILE":"3888799","ELEMENT_SET_NO":"999","RCS_SIZE":"LARGE","INCLINATION":"53.0518","MEAN_MOTION_DDOT":"0.0000000000000","DECAY_DATE":null,"OBJECT_NAME":"STARLINK-2251","COUNTRY_CODE":"US","MEAN_ELEMENT_THEORY":"SGP4","NORAD_CAT_ID":"48594","REV_AT_EPOCH":"10601","REF_FRAME":"TEME","RA_OF_ASC_NODE":"181.4452","CLASSIFICATION_TYPE":"U","LAUNCH_DATE":"2021-05-15","MEAN_MOTION_DOT":"0.00030173","APOAPSIS":"548.252","SITE":"AFETR","MEAN_MOTION":"15.06335148"}];
